STARLETTE               
1 07646U 75010A   24153.53334872 -.00000135  00000+0  79389-5 0  9996
2 07646  49.8209 167.7907 0205665 119.7399 242.4129 13.82328450491382
LAGEOS 1                
1 08820U 76039A   24152.59863088  .00000007  00000+0  00000+0 0  9999
2 08820 109.8551 283.5898 0044242 102.4600 243.3637  6.38664974865865
AJISAI (EGS)            
1 16908U 86061A   24153.56764959 -.00000095  00000+0  16674-4 0  9993
2 16908  50.0098 280.1413 0011436  83.1295   4.6268 12.44505718387898
COSMOS 1989 (ETALON 1)  
1 19751U 89001C   24152.49148168  .00000025  00000+0  00000+0 0  9991
2 19751  64.5480  97.8129 0023853 215.9532 244.6951  2.13156072275457
COSMOS 2024 (ETALON 2)  
1 20026U 89039C   24152.72717127 -.00000035  00000+0  00000+0 0  9994
2 20026  65.3450 336.1225 0019381 217.1047  94.0916  2.13204324272585
LAGEOS 2                
1 22195U 92070B   24153.01560229 -.00000009  00000+0  00000+0 0  9995
2 22195  52.6797  18.2088 0137585 220.6419 290.8914  6.47293385747319
STELLA                  
1 22824U 93061B   24153.54435815 -.00000026  00000+0  80707-5 0  9992
2 22824  98.8792 199.5850 0005434 239.1156 272.8677 14.27425121598553
LARETS                  
1 27944U 03042F   24153.52343939  .00000134  00000+0  35376-4 0  9993
2 27944  98.3130 293.6545 0011863 199.3671 160.7081 14.63514904104365
LARES                   
1 38077U 12006A   24153.35810997 -.00000022  00000+0  10170-3 0  9997
2 38077  69.4887 126.1911 0008203   9.6030 350.5151 12.54931782563591
LARES-2                 
1 53105U 22080A   24149.13679489  .00000017  00000+0  00000+0 0  9999
2 53105  70.1370 202.5597 0004995 143.1766 216.9402  6.38965209 43749
